HAWK-11A                
1 62382U 24247F   26068.51231358  .00009457  00000+0  34106-3 0  9991
2 62382  44.9941 114.3328 0005466 327.3713  32.6832 15.28849427 67741
STARLINK-34365          
1 64671U 25139H   26068.44965946  .00026197  00000+0  89298-3 0  9996
2 64671  53.1567 128.4161 0001097  93.2285 266.8841 15.30218259 40300
